CCSDS_OMM_VERS = 2.0
CREATION_DATE  = 
ORIGINATOR     = 

OBJECT_NAME    = STARLINK-36640
OBJECT_ID      = 2026-018M
CENTER_NAME    = EARTH
REF_FRAME      = TEME
TIME_SYSTEM    = UTC
MEAN_ELEMENT_THEORY = SGP/SGP4

EPOCH          = 2026-02-24T21:47:59.832096
MEAN_MOTION    = 15.75225518
ECCENTRICITY   = .00013799
INCLINATION    = 97.2856
RA_OF_ASC_NODE = 121.0524
ARG_OF_PERICENTER = 84.6742
MEAN_ANOMALY   = 275.4681

EPHEMERIS_TYPE = 0
CLASSIFICATION_TYPE = U
NORAD_CAT_ID   = 67600
ELEMENT_SET_NO = 999
REV_AT_EPOCH   = 529
BSTAR          = .16408961E-2
MEAN_MOTION_DOT = .25238E-2
MEAN_MOTION_DDOT = 0

CCSDS_OMM_VERS = 2.0
CREATION_DATE  = 
ORIGINATOR     = 

OBJECT_NAME    = STARLINK-36635
OBJECT_ID      = 2026-018N
CENTER_NAME    = EARTH
REF_FRAME      = TEME
TIME_SYSTEM    = UTC
MEAN_ELEMENT_THEORY = SGP/SGP4

EPOCH          = 2026-02-24T22:00:01.999584
MEAN_MOTION    = 15.75209458
ECCENTRICITY   = .00013889
INCLINATION    = 97.2849
RA_OF_ASC_NODE = 121.1420
ARG_OF_PERICENTER = 90.7708
MEAN_ANOMALY   = 136.7233

EPHEMERIS_TYPE = 0
CLASSIFICATION_TYPE = U
NORAD_CAT_ID   = 67601
ELEMENT_SET_NO = 999
REV_AT_EPOCH   = 530
BSTAR          = -.53484174E-3
MEAN_MOTION_DOT = -.79237E-3
MEAN_MOTION_DDOT = 0

CCSDS_OMM_VERS = 2.0
CREATION_DATE  = 
ORIGINATOR     = 

OBJECT_NAME    = STARLINK-36631
OBJECT_ID      = 2026-018P
CENTER_NAME    = EARTH
REF_FRAME      = TEME
TIME_SYSTEM    = UTC
MEAN_ELEMENT_THEORY = SGP/SGP4

EPOCH          = 2026-02-24T22:00:01.999584
MEAN_MOTION    = 15.75217897
ECCENTRICITY   = .00016346
INCLINATION    = 97.2852
RA_OF_ASC_NODE = 121.1616
ARG_OF_PERICENTER = 84.3566
MEAN_ANOMALY   = 189.1252

EPHEMERIS_TYPE = 0
CLASSIFICATION_TYPE = U
NORAD_CAT_ID   = 67602
ELEMENT_SET_NO = 999
REV_AT_EPOCH   = 529
BSTAR          = -.50402864E-3
MEAN_MOTION_DOT = -.74748E-3
MEAN_MOTION_DDOT = 0

CCSDS_OMM_VERS = 2.0
CREATION_DATE  = 
ORIGINATOR     = 

OBJECT_NAME    = STARLINK-36626
OBJECT_ID      = 2026-018Q
CENTER_NAME    = EARTH
REF_FRAME      = TEME
TIME_SYSTEM    = UTC
MEAN_ELEMENT_THEORY = SGP/SGP4

EPOCH          = 2026-02-24T22:42:53.173728
MEAN_MOTION    = 15.75261515
ECCENTRICITY   = .00015167
INCLINATION    = 97.2855
RA_OF_ASC_NODE = 121.1562
ARG_OF_PERICENTER = 108.3103
MEAN_ANOMALY   = 251.8327

EPHEMERIS_TYPE = 0
CLASSIFICATION_TYPE = U
NORAD_CAT_ID   = 67603
ELEMENT_SET_NO = 999
REV_AT_EPOCH   = 530
BSTAR          = .13826745E-2
MEAN_MOTION_DOT = .21196E-2
MEAN_MOTION_DDOT = 0

CCSDS_OMM_VERS = 2.0
CREATION_DATE  = 
ORIGINATOR     = 

OBJECT_NAME    = STARLINK-36605
OBJECT_ID      = 2026-018R
CENTER_NAME    = EARTH
REF_FRAME      = TEME
TIME_SYSTEM    = UTC
MEAN_ELEMENT_THEORY = SGP/SGP4

EPOCH          = 2026-02-24T21:36:49.315392
MEAN_MOTION    = 15.75234467
ECCENTRICITY   = .00016555
INCLINATION    = 97.2850
RA_OF_ASC_NODE = 121.0637
ARG_OF_PERICENTER = 67.9867
MEAN_ANOMALY   = 292.1574

EPHEMERIS_TYPE = 0
CLASSIFICATION_TYPE = U
NORAD_CAT_ID   = 67604
ELEMENT_SET_NO = 999
REV_AT_EPOCH   = 529
BSTAR          = .15099246E-2
MEAN_MOTION_DOT = .23175E-2
MEAN_MOTION_DDOT = 0

CCSDS_OMM_VERS = 2.0
CREATION_DATE  = 
ORIGINATOR     = 

OBJECT_NAME    = STARLINK-36281
OBJECT_ID      = 2026-018S
CENTER_NAME    = EARTH
REF_FRAME      = TEME
TIME_SYSTEM    = UTC
MEAN_ELEMENT_THEORY = SGP/SGP4

EPOCH          = 2026-02-24T20:36:04.444992
MEAN_MOTION    = 15.80927374
ECCENTRICITY   = .00013654
INCLINATION    = 97.2863
RA_OF_ASC_NODE = 121.1208
ARG_OF_PERICENTER = 40.1564
MEAN_ANOMALY   = 319.9805

EPHEMERIS_TYPE = 0
CLASSIFICATION_TYPE = U
NORAD_CAT_ID   = 67605
ELEMENT_SET_NO = 999
REV_AT_EPOCH   = 529
BSTAR          = .13763471E-2
MEAN_MOTION_DOT = .273308E-2
MEAN_MOTION_DDOT = 0

CCSDS_OMM_VERS = 2.0
CREATION_DATE  = 
ORIGINATOR     = 

OBJECT_NAME    = STARLINK-35843
OBJECT_ID      = 2026-018T
CENTER_NAME    = EARTH
REF_FRAME      = TEME
TIME_SYSTEM    = UTC
MEAN_ELEMENT_THEORY = SGP/SGP4

EPOCH          = 2026-02-24T13:51:17.342784
MEAN_MOTION    = 15.75247251
ECCENTRICITY   = .0000852
INCLINATION    = 97.2841
RA_OF_ASC_NODE = 120.7387
ARG_OF_PERICENTER = 57.0061
MEAN_ANOMALY   = 303.1286

EPHEMERIS_TYPE = 0
CLASSIFICATION_TYPE = U
NORAD_CAT_ID   = 67606
ELEMENT_SET_NO = 999
REV_AT_EPOCH   = 524
BSTAR          = .13324E-2
MEAN_MOTION_DOT = .203924E-2
MEAN_MOTION_DDOT = 0

CCSDS_OMM_VERS = 2.0
CREATION_DATE  = 
ORIGINATOR     = 

OBJECT_NAME    = STARLINK-36351
OBJECT_ID      = 2026-018U
CENTER_NAME    = EARTH
REF_FRAME      = TEME
TIME_SYSTEM    = UTC
MEAN_ELEMENT_THEORY = SGP/SGP4

EPOCH          = 2026-02-24T22:40:20.566272
MEAN_MOTION    = 15.75253457
ECCENTRICITY   = .00007076
INCLINATION    = 97.2857
RA_OF_ASC_NODE = 121.1574
ARG_OF_PERICENTER = 83.4137
MEAN_ANOMALY   = 276.7209

EPHEMERIS_TYPE = 0
CLASSIFICATION_TYPE = U
NORAD_CAT_ID   = 67607
ELEMENT_SET_NO = 999
REV_AT_EPOCH   = 530
BSTAR          = .10048378E-2
MEAN_MOTION_DOT = .152878E-2
MEAN_MOTION_DDOT = 0

CCSDS_OMM_VERS = 2.0
CREATION_DATE  = 
ORIGINATOR     = 

OBJECT_NAME    = STARLINK-36411
OBJECT_ID      = 2026-018V
CENTER_NAME    = EARTH
REF_FRAME      = TEME
TIME_SYSTEM    = UTC
MEAN_ELEMENT_THEORY = SGP/SGP4

EPOCH          = 2026-02-23T03:27:28.452384
MEAN_MOTION    = 15.80740032
ECCENTRICITY   = .0000472
INCLINATION    = 97.2849
RA_OF_ASC_NODE = 119.3189
ARG_OF_PERICENTER = 338.7837
MEAN_ANOMALY   = 21.3411

EPHEMERIS_TYPE = 0
CLASSIFICATION_TYPE = U
NORAD_CAT_ID   = 67608
ELEMENT_SET_NO = 999
REV_AT_EPOCH   = 502
BSTAR          = -.13809E-3
MEAN_MOTION_DOT = -.26419E-3
MEAN_MOTION_DDOT = 0

CCSDS_OMM_VERS = 2.0
CREATION_DATE  = 
ORIGINATOR     = 

OBJECT_NAME    = STARLINK-36312
OBJECT_ID      = 2026-018W
CENTER_NAME    = EARTH
REF_FRAME      = TEME
TIME_SYSTEM    = UTC
MEAN_ELEMENT_THEORY = SGP/SGP4

EPOCH          = 2026-02-24T14:59:54.200832
MEAN_MOTION    = 15.75251413
ECCENTRICITY   = .0001293
INCLINATION    = 97.2838
RA_OF_ASC_NODE = 120.8274
ARG_OF_PERICENTER = 65.2200
MEAN_ANOMALY   = 294.9199

EPHEMERIS_TYPE = 0
CLASSIFICATION_TYPE = U
NORAD_CAT_ID   = 67609
ELEMENT_SET_NO = 999
REV_AT_EPOCH   = 525
BSTAR          = .16016E-2
MEAN_MOTION_DOT = .246433E-2
MEAN_MOTION_DDOT = 0

CCSDS_OMM_VERS = 2.0
CREATION_DATE  = 
ORIGINATOR     = 

OBJECT_NAME    = STARLINK-36387
OBJECT_ID      = 2026-018X
CENTER_NAME    = EARTH
REF_FRAME      = TEME
TIME_SYSTEM    = UTC
MEAN_ELEMENT_THEORY = SGP/SGP4

EPOCH          = 2026-02-24T21:56:00.776832
MEAN_MOTION    = 15.81028529
ECCENTRICITY   = .00014618
INCLINATION    = 97.2858
RA_OF_ASC_NODE = 121.1972
ARG_OF_PERICENTER = 119.2853
MEAN_ANOMALY   = 240.8562

EPHEMERIS_TYPE = 0
CLASSIFICATION_TYPE = U
NORAD_CAT_ID   = 67610
ELEMENT_SET_NO = 999
REV_AT_EPOCH   = 530
BSTAR          = .24329591E-2
MEAN_MOTION_DOT = .498333E-2
MEAN_MOTION_DDOT = 0

CCSDS_OMM_VERS = 2.0
CREATION_DATE  = 
ORIGINATOR     = 

OBJECT_NAME    = STARLINK-36636
OBJECT_ID      = 2026-018Y
CENTER_NAME    = EARTH
REF_FRAME      = TEME
TIME_SYSTEM    = UTC
MEAN_ELEMENT_THEORY = SGP/SGP4

EPOCH          = 2026-02-24T22:00:01.999584
MEAN_MOTION    = 15.75215922
ECCENTRICITY   = .00012652
INCLINATION    = 97.2867
RA_OF_ASC_NODE = 121.1709
ARG_OF_PERICENTER = 78.2082
MEAN_ANOMALY   = 229.2750

EPHEMERIS_TYPE = 0
CLASSIFICATION_TYPE = U
NORAD_CAT_ID   = 67611
ELEMENT_SET_NO = 999
REV_AT_EPOCH   = 530
BSTAR          = -.53873211E-3
MEAN_MOTION_DOT = -.79828E-3
MEAN_MOTION_DDOT = 0

