STARLINK-36640          
1 67600U 26018M   26055.90833139  .00252380  00000+0  16409-2 0  9991
2 67600  97.2856 121.0524 0001379  84.6742 275.4681 15.75225518  5294
STARLINK-36635          
1 67601U 26018N   26055.91668981 -.00079237  00000+0 -53484-3 0  9999
2 67601  97.2849 121.1420 0001388  90.7708 136.7233 15.75209458  5302
STARLINK-36631          
1 67602U 26018P   26055.91668981 -.00074748  00000+0 -50403-3 0  9990
2 67602  97.2852 121.1616 0001634  84.3566 189.1252 15.75217897  5296
STARLINK-36626          
1 67603U 26018Q   26055.94644877  .00211960  00000+0  13827-2 0  9997
2 67603  97.2855 121.1562 0001516 108.3103 251.8327 15.75261515  5301
STARLINK-36605          
1 67604U 26018R   26055.90057078  .00231750  00000+0  15099-2 0  9997
2 67604  97.2850 121.0637 0001655  67.9867 292.1574 15.75234467  5296
STARLINK-36281          
1 67605U 26018S   26055.85838478  .00273308  00000+0  13763-2 0  9994
2 67605  97.2863 121.1208 0001365  40.1564 319.9805 15.80927374  5298
STARLINK-35843          
1 67606U 26018T   26055.57728406  .00203924  00000+0  13324-2 0  9993
2 67606  97.2841 120.7387 0000852  57.0061 303.1286 15.75247251  5243
STARLINK-36351          
1 67607U 26018U   26055.94468248  .00152878  00000+0  10048-2 0  9991
2 67607  97.2857 121.1574 0000707  83.4137 276.7209 15.75253457  5302
STARLINK-36411          
1 67608U 26018V   26054.14407931 -.00026419  00000+0 -13809-3 0  9997
2 67608  97.2849 119.3189 0000472 338.7837  21.3411 15.80740032  5021
STARLINK-36312          
1 67609U 26018W   26055.62493288  .00246433  00000+0  16016-2 0  9992
2 67609  97.2838 120.8274 0001293  65.2200 294.9199 15.75251413  5250
STARLINK-36387          
1 67610U 26018X   26055.91389788  .00498333  00000+0  24330-2 0  9991
2 67610  97.2858 121.1972 0001461 119.2853 240.8562 15.81028529  5301
STARLINK-36636          
1 67611U 26018Y   26055.91668981 -.00079828  00000+0 -53873-3 0  9998
2 67611  97.2867 121.1709 0001265  78.2082 229.2750 15.75215922  5308
